FENGYUN 1C DEB          
1 32165U 99025CTK 17342.48606584  .00000593  00000-0  44924-3 0  9993
2 32165  98.6250  67.6277 0155363 346.3489  13.3493 13.92024055525774
